[{"CCSDS_OMM_VERS":"2.0","COMMENT":"GENERATED VIA SPACE-TRACK.ORG API","CREATION_DATE":"2005-04-22T10:35:50","ORIGINATOR":"18 SPCS","OBJECT_NAME":"SL-8 DEB","OBJECT_ID":"1965-020V","CENTER_NAME":"EARTH","REF_FRAME":"TEME","TIME_SYSTEM":"UTC","MEAN_ELEMENT_THEORY":"SGP4","EPOCH":"1965-12-18T20:43:13.599840","MEAN_MOTION":"16.19061400","ECCENTRICITY":"0.00591900","INCLINATION":"56.2780","RA_OF_ASC_NODE":"39.1409","ARG_OF_PERICENTER":"299.0088","MEAN_ANOMALY":"60.4224","EPHEMERIS_TYPE":"0","CLASSIFICATION_TYPE":"U","NORAD_CAT_ID":"1350","ELEMENT_SET_NO":"999","REV_AT_EPOCH":"52","BSTAR":"3234.00000000000000","MEAN_MOTION_DOT":"0.00000000","MEAN_MOTION_DDOT":"0.0786690500000","SEMIMAJOR_AXIS":"0.194","PERIOD":"6600.242","APOAPSIS":"88.940","PERIAPSIS":"261.174","OBJECT_TYPE":"DEBRIS","RCS_SIZE":null,"COUNTRY_CODE":null,"LAUNCH_DATE":null,"SITE":null,"DECAY_DATE":"1965-12-19","FILE":"128314","GP_ID":"41675957","TLE_LINE0":"0 SL-8 DEB","TLE_LINE1":"1 01350U 65020  V 65352.86335185  .07866905 +19372-0 +00000-0 0  9995","TLE_LINE2":"2 01350 056.2780 039.1409 0059190 299.0088 060.4224 16.19061400032343"},{"CCSDS_OMM_VERS":"2.0","COMMENT":"GENERATED VIA SPACE-TRACK.ORG API","CREATION_DATE":"2004-08-15T23:35:38","ORIGINATOR":"18 SPCS","OBJECT_NAME":"THOR ABLESTAR DEB","OBJECT_ID":"1965-017H","CENTER_NAME":"EARTH","REF_FRAME":"TEME","TIME_SYSTEM":"UTC","MEAN_ELEMENT_THEORY":"SGP4","EPOCH":"1965-12-19T00:35:05.066015","MEAN_MOTION":"16.06848316","ECCENTRICITY":"0.00442200","INCLINATION":"89.9190","RA_OF_ASC_NODE":"73.5379","ARG_OF_PERICENTER":"90.1803","MEAN_ANOMALY":"270.3372","EPHEMERIS_TYPE":"0","CLASSIFICATION_TYPE":"U","NORAD_CAT_ID":"1323","ELEMENT_SET_NO":"999","REV_AT_EPOCH":"4278","BSTAR":"0.00000000000000","MEAN_MOTION_DOT":"0.02109255","MEAN_MOTION_DDOT":"0.0113930000000","SEMIMAJOR_AXIS":"6633.644","PERIOD":"89.616","APOAPSIS":"284.843","PERIAPSIS":"226.175","OBJECT_TYPE":"DEBRIS","RCS_SIZE":null,"COUNTRY_CODE":null,"LAUNCH_DATE":null,"SITE":null,"DECAY_DATE":"1965-12-23","FILE":"33911","GP_ID":"8700626","TLE_LINE0":"0 THOR ABLESTAR DEB","TLE_LINE1":"1 01323U 65017  H 65353.02436419  .02109255 +11393-1 +00000-0 0  9991","TLE_LINE2":"2 01323 089.9190 073.5379 0044220 090.1803 270.3372 16.06848316042782"},{"CCSDS_OMM_VERS":"2.0","COMMENT":"GENERATED VIA SPACE-TRACK.ORG API","CREATION_DATE":"2005-04-22T10:35:50","ORIGINATOR":"18 SPCS","OBJECT_NAME":"SL-8 DEB","OBJECT_ID":"1965-020CD","CENTER_NAME":"EARTH","REF_FRAME":"TEME","TIME_SYSTEM":"UTC","MEAN_ELEMENT_THEORY":"SGP4","EPOCH":"1965-12-21T10:10:38.008127","MEAN_MOTION":"15.96912675","ECCENTRICITY":"0.01118250","INCLINATION":"56.0269","RA_OF_ASC_NODE":"354.4129","ARG_OF_PERICENTER":"282.2918","MEAN_ANOMALY":"76.4596","EPHEMERIS_TYPE":"0","CLASSIFICATION_TYPE":"U","NORAD_CAT_ID":"1533","ELEMENT_SET_NO":"999","REV_AT_EPOCH":"4105","BSTAR":"0.00000000000000","MEAN_MOTION_DOT":"0.02586474","MEAN_MOTION_DDOT":"0.0150190000000","SEMIMAJOR_AXIS":"6661.131","PERIOD":"90.173","APOAPSIS":"357.484","PERIAPSIS":"208.508","OBJECT_TYPE":"DEBRIS","RCS_SIZE":null,"COUNTRY_CODE":null,"LAUNCH_DATE":null,"SITE":null,"DECAY_DATE":"1965-12-27","FILE":"128314","GP_ID":"41675994","TLE_LINE0":"0 SL-8 DEB","TLE_LINE1":"1 01533U 65020 CD 65355.42405102  .02586474 +15019-1 +00000-0 0  9990","TLE_LINE2":"2 01533 056.0269 354.4129 0111825 282.2918 076.4596 15.96912675041058"},{"CCSDS_OMM_VERS":"2.0","COMMENT":"GENERATED VIA SPACE-TRACK.ORG API","CREATION_DATE":"2004-08-15T23:35:38","ORIGINATOR":"18 SPCS","OBJECT_NAME":"SL-8 DEB","OBJECT_ID":"1965-020BG","CENTER_NAME":"EARTH","REF_FRAME":"TEME","TIME_SYSTEM":"UTC","MEAN_ELEMENT_THEORY":"SGP4","EPOCH":"1965-12-30T18:44:56.784191","MEAN_MOTION":"15.86479910","ECCENTRICITY":"0.01855500","INCLINATION":"55.8885","RA_OF_ASC_NODE":"317.5352","ARG_OF_PERICENTER":"308.8988","MEAN_ANOMALY":"49.4988","EPHEMERIS_TYPE":"0","CLASSIFICATION_TYPE":"U","NORAD_CAT_ID":"1482","ELEMENT_SET_NO":"999","REV_AT_EPOCH":"5221","BSTAR":"0.00000000000000","MEAN_MOTION_DOT":"0.01638359","MEAN_MOTION_DDOT":"0.0053656000000","SEMIMAJOR_AXIS":"6690.302","PERIOD":"90.766","APOAPSIS":"436.305","PERIAPSIS":"188.028","OBJECT_TYPE":"DEBRIS","RCS_SIZE":null,"COUNTRY_CODE":null,"LAUNCH_DATE":null,"SITE":null,"DECAY_DATE":"1966-01-09","FILE":"33911","GP_ID":"8702594","TLE_LINE0":"0 SL-8 DEB","TLE_LINE1":"1 01482U 65020 BG 65364.78121278  .01638359 +53656-2 +00000-0 0  9990","TLE_LINE2":"2 01482 055.8885 317.5352 0185550 308.8988 049.4988 15.86479910052212"},{"CCSDS_OMM_VERS":"2.0","COMMENT":"GENERATED VIA SPACE-TRACK.ORG API","CREATION_DATE":"2004-08-15T23:35:38","ORIGINATOR":"18 SPCS","OBJECT_NAME":"SL-8 DEB","OBJECT_ID":"1965-020BQ","CENTER_NAME":"EARTH","REF_FRAME":"TEME","TIME_SYSTEM":"UTC","MEAN_ELEMENT_THEORY":"SGP4","EPOCH":"1965-12-31T09:52:45.274368","MEAN_MOTION":"15.74620340","ECCENTRICITY":"0.01767920","INCLINATION":"55.6826","RA_OF_ASC_NODE":"354.0958","ARG_OF_PERICENTER":"291.4838","MEAN_ANOMALY":"66.6519","EPHEMERIS_TYPE":"0","CLASSIFICATION_TYPE":"U","NORAD_CAT_ID":"1490","ELEMENT_SET_NO":"999","REV_AT_EPOCH":"4154","BSTAR":"0.00000000000000","MEAN_MOTION_DOT":"0.05006146","MEAN_MOTION_DDOT":"0.0447910000000","SEMIMAJOR_AXIS":"6723.853","PERIOD":"91.450","APOAPSIS":"464.590","PERIAPSIS":"226.845","OBJECT_TYPE":"DEBRIS","RCS_SIZE":null,"COUNTRY_CODE":null,"LAUNCH_DATE":null,"SITE":null,"DECAY_DATE":"1966-01-03","FILE":"33911","GP_ID":"8702794","TLE_LINE0":"0 SL-8 DEB","TLE_LINE1":"1 01490U 65020 BQ 65365.41163512  .05006146 +44791-1 +00000-0 0  9993","TLE_LINE2":"2 01490 055.6826 354.0958 0176792 291.4838 066.6519 15.74620340041548"},{"CCSDS_OMM_VERS":"2.0","COMMENT":"GENERATED VIA SPACE-TRACK.ORG API","CREATION_DATE":"2004-08-15T23:35:47","ORIGINATOR":"18 SPCS","OBJECT_NAME":"COSMOS 95 DEB","OBJECT_ID":"1965-088D","CENTER_NAME":"EARTH","REF_FRAME":"TEME","TIME_SYSTEM":"UTC","MEAN_ELEMENT_THEORY":"SGP4","EPOCH":"1966-01-03T03:06:19.365983","MEAN_MOTION":"16.24975880","ECCENTRICITY":"0.00271630","INCLINATION":"48.4001","RA_OF_ASC_NODE":"106.5891","ARG_OF_PERICENTER":"42.3469","MEAN_ANOMALY":"317.9032","EPHEMERIS_TYPE":"0","CLASSIFICATION_TYPE":"U","NORAD_CAT_ID":"1740","ELEMENT_SET_NO":"999","REV_AT_EPOCH":"934","BSTAR":"0.00000000000000","MEAN_MOTION_DOT":"0.01814498","MEAN_MOTION_DDOT":"0.0033027000000","SEMIMAJOR_AXIS":"6584.217","PERIOD":"88.616","APOAPSIS":"223.967","PERIAPSIS":"188.197","OBJECT_TYPE":"DEBRIS","RCS_SIZE":null,"COUNTRY_CODE":null,"LAUNCH_DATE":null,"SITE":null,"DECAY_DATE":"1966-01-06","FILE":"33914","GP_ID":"8715801","TLE_LINE0":"0 COSMOS 95 DEB","TLE_LINE1":"1 01740U 65088  D 66003.12939081  .01814498 +33027-2 +00000-0 0  9999","TLE_LINE2":"2 01740 048.4001 106.5891 0027163 042.3469 317.9032 16.24975880009349"},{"CCSDS_OMM_VERS":"2.0","COMMENT":"GENERATED VIA SPACE-TRACK.ORG API","CREATION_DATE":"2004-08-15T23:35:47","ORIGINATOR":"18 SPCS","OBJECT_NAME":"OPS 4639 DEB","OBJECT_ID":"1965-110B","CENTER_NAME":"EARTH","REF_FRAME":"TEME","TIME_SYSTEM":"UTC","MEAN_ELEMENT_THEORY":"SGP4","EPOCH":"1966-01-03T20:55:22.822752","MEAN_MOTION":"15.98194038","ECCENTRICITY":"0.01511810","INCLINATION":"80.0032","RA_OF_ASC_NODE":"102.2482","ARG_OF_PERICENTER":"127.5809","MEAN_ANOMALY":"233.8435","EPHEMERIS_TYPE":"0","CLASSIFICATION_TYPE":"U","NORAD_CAT_ID":"1901","ELEMENT_SET_NO":"999","REV_AT_EPOCH":"159","BSTAR":"0.00000000000000","MEAN_MOTION_DOT":"0.04913130","MEAN_MOTION_DDOT":"0.0551240000000","SEMIMAJOR_AXIS":"6657.570","PERIOD":"90.101","APOAPSIS":"380.085","PERIAPSIS":"178.785","OBJECT_TYPE":"DEBRIS","RCS_SIZE":null,"COUNTRY_CODE":null,"LAUNCH_DATE":null,"SITE":null,"DECAY_DATE":"1966-01-06","FILE":"33914","GP_ID":"8717824","TLE_LINE0":"0 OPS 4639 DEB","TLE_LINE1":"1 01901U 65110  B 66003.87179193  .04913130 +55124-1 +00000-0 0  9993","TLE_LINE2":"2 01901 080.0032 102.2482 0151181 127.5809 233.8435 15.98194038001595"},{"CCSDS_OMM_VERS":"2.0","COMMENT":"GENERATED VIA SPACE-TRACK.ORG API","CREATION_DATE":"2004-08-15T23:35:47","ORIGINATOR":"18 SPCS","OBJECT_NAME":"SL-8 DEB","OBJECT_ID":"1965-020CC","CENTER_NAME":"EARTH","REF_FRAME":"TEME","TIME_SYSTEM":"UTC","MEAN_ELEMENT_THEORY":"SGP4","EPOCH":"1966-01-07T15:40:42.640320","MEAN_MOTION":"16.15119095","ECCENTRICITY":"0.00607980","INCLINATION":"55.9512","RA_OF_ASC_NODE":"270.3371","ARG_OF_PERICENTER":"332.0184","MEAN_ANOMALY":"27.7381","EPHEMERIS_TYPE":"0","CLASSIFICATION_TYPE":"U","NORAD_CAT_ID":"1532","ELEMENT_SET_NO":"999","REV_AT_EPOCH":"4380","BSTAR":"0.00000000000000","MEAN_MOTION_DOT":"0.02503391","MEAN_MOTION_DDOT":"-0.0182760000000","SEMIMAJOR_AXIS":"6610.978","PERIOD":"89.157","APOAPSIS":"273.037","PERIAPSIS":"192.650","OBJECT_TYPE":"DEBRIS","RCS_SIZE":null,"COUNTRY_CODE":null,"LAUNCH_DATE":null,"SITE":null,"DECAY_DATE":"1966-01-11","FILE":"33914","GP_ID":"8712837","TLE_LINE0":"0 SL-8 DEB","TLE_LINE1":"1 01532U 65020 CC 66007.65327130  .02503391 -18276-1 +00000-0 0  9999","TLE_LINE2":"2 01532 055.9512 270.3371 0060798 332.0184 027.7381 16.15119095043805"}]